SAUDISAT 1C             
1 27607U 02058C   22011.60487916  .00000184  00000+0  46411-4 0  9996
2 27607  64.5555  61.7644 0066018 326.2300  33.4605 14.75869253 25221
SAUDISAT 2              
1 28371U 04025F   22012.47334337  .00000006  00000+0  12531-4 0  9994
2 28371  98.3561 329.1102 0024583 223.2978 136.6283 14.54473243930613
SAUDISAT 3              
1 31118U 07012B   22012.42211009  .00000066  00000+0  19329-4 0  9999
2 31118  97.9503 323.4304 0014605 337.8458  22.2115 14.69244100790248
PISAT                   
1 41784U 16059B   22012.08348730  .00000194  00000+0  45907-4 0  9997
2 41784  97.9400  61.3486 0030716 305.1020  54.7304 14.63722907282816
FLYING LAPTOP           
1 42831U 17042G   22011.75553898  .00000231  00000+0  28301-4 0  9991
2 42831  97.4402 235.1530 0014255 165.9158 194.2474 14.91458335244731
SALSAT                  
1 46495U 20068K   22011.89291745  .00000735  00000+0  57864-4 0  9993
2 46495  97.7136 313.3963 0018631  88.0017 272.3343 15.03777396 70654
